{
  "type": "FeatureCollection",
  "features": [
    {
      "type": "Feature",
      "properties": {
        "norad_id": 41866,
        "name": "GOES 16",
        "group": "weather",
        "lat": 0.05402672181086878,
        "lon": 147.2378417995841,
        "alt_km": 35792.181096215005,
        "timestamp": "2025-12-09T11:33:54.442253+00:00",
        "meta_object_name": "GOES 16",
        "meta_object_id": "2016-071A",
        "meta_epoch": "2025-12-09T04:35:00.240864",
        "meta_mean_motion": 1.00270898,
        "meta_eccentricity": 0.0003402,
        "meta_inclination": 0.0692,
        "meta_ra_of_asc_node": 102.1857,
        "meta_arg_of_pericenter": 159.0527,
        "meta_mean_anomaly": 141.0269,
        "meta_ephemeris_type": 0,
        "meta_classification_type": "U",
        "meta_norad_cat_id": 41866,
        "meta_element_set_no": 999,
        "meta_rev_at_epoch": 3319,
        "meta_bstar": 0,
        "meta_mean_motion_dot": -8.9e-07,
        "meta_mean_motion_ddot": 0,
        "tle_line1": "1 41866U 16071A   25343.19097501 -.00000089  00000+0  00000+0 0  9995",
        "tle_line2": "2 41866   0.0692 102.1857 0003402 159.0527 141.0269  1.00270898 33190"
      },
      "geometry": {
        "type": "Point",
        "coordinates": [
          147.2378417995841,
          0.05402672181086878
        ]
      }
    },
    {
      "type": "Feature",
      "properties": {
        "norad_id": 41882,
        "name": "FENGYUN 4A",
        "group": "weather",
        "lat": -1.6790802230882487,
        "lon": 15.83187294089344,
        "alt_km": 35803.44084314483,
        "timestamp": "2025-12-09T11:33:54.442265+00:00",
        "meta_object_name": "FENGYUN 4A",
        "meta_object_id": "2016-077A",
        "meta_epoch": "2025-12-08T17:16:38.775936",
        "meta_mean_motion": 1.00275455,
        "meta_eccentricity": 0.00049335,
        "meta_inclination": 1.839,
        "meta_ra_of_asc_node": 82.4323,
        "meta_arg_of_pericenter": 143.079,
        "meta_mean_anomaly": 235.2066,
        "meta_ephemeris_type": 0,
        "meta_classification_type": "U",
        "meta_norad_cat_id": 41882,
        "meta_element_set_no": 999,
        "meta_rev_at_epoch": 3302,
        "meta_bstar": 0,
        "meta_mean_motion_dot": -3.55e-06,
        "meta_mean_motion_ddot": 0,
        "tle_line1": "1 41882U 16077A   25342.71989324 -.00000355  00000+0  00000+0 0  9995",
        "tle_line2": "2 41882   1.8390  82.4323 0004933 143.0790 235.2066  1.00275455 33022"
      },
      "geometry": {
        "type": "Point",
        "coordinates": [
          15.83187294089344,
          -1.6790802230882487
        ]
      }
    },
    {
      "type": "Feature",
      "properties": {
        "norad_id": 41884,
        "name": "CYGFM05",
        "group": "weather",
        "lat": -1.026058834352352,
        "lon": -110.12144708295553,
        "alt_km": 417.4764507698037,
        "timestamp": "2025-12-09T11:33:54.442276+00:00",
        "meta_object_name": "CYGFM05",
        "meta_object_id": "2016-078A",
        "meta_epoch": "2025-12-08T16:12:15.134688",
        "meta_mean_motion": 15.47410776,
        "meta_eccentricity": 0.00096392,
        "meta_inclination": 34.9598,
        "meta_ra_of_asc_node": 73.6774,
        "meta_arg_of_pericenter": 145.1655,
        "meta_mean_anomaly": 214.9699,
        "meta_ephemeris_type": 0,
        "meta_classification_type": "U",
        "meta_norad_cat_id": 41884,
        "meta_element_set_no": 999,
        "meta_rev_at_epoch": 49913,
        "meta_bstar": 0.00049402945,
        "meta_mean_motion_dot": 0.00026159,
        "meta_mean_motion_ddot": 0,
        "tle_line1": "1 41884U 16078A   25342.67517517  .00026159  00000+0  49403-3 0  9997",
        "tle_line2": "2 41884  34.9598  73.6774 0009639 145.1655 214.9699 15.47410776499131"
      },
      "geometry": {
        "type": "Point",
        "coordinates": [
          -110.12144708295553,
          -1.026058834352352
        ]
      }
    },
    {
      "type": "Feature",
      "properties": {
        "norad_id": 41885,
        "name": "CYGFM04",
        "group": "weather",
        "lat": 16.10521073566034,
        "lon": 67.71348594608624,
        "alt_km": 418.2912048220178,
        "timestamp": "2025-12-09T11:33:54.442287+00:00",
        "meta_object_name": "CYGFM04",
        "meta_object_id": "2016-078B",
        "meta_epoch": "2025-12-08T13:48:05.285088",
        "meta_mean_motion": 15.50097993,
        "meta_eccentricity": 0.0009015,
        "meta_inclination": 34.9353,
        "meta_ra_of_asc_node": 49.227,
        "meta_arg_of_pericenter": 173.4437,
        "meta_mean_anomaly": 186.6404,
        "meta_ephemeris_type": 0,
        "meta_classification_type": "U",
        "meta_norad_cat_id": 41885,
        "meta_element_set_no": 999,
        "meta_rev_at_epoch": 49929,
        "meta_bstar": 0.00050242,
        "meta_mean_motion_dot": 0.00029253,
        "meta_mean_motion_ddot": 0,
        "tle_line1": "1 41885U 16078B   25342.57506117  .00029253  00000+0  50242-3 0  9992",
        "tle_line2": "2 41885  34.9353  49.2270 0009015 173.4437 186.6404 15.50097993499293"
      },
      "geometry": {
        "type": "Point",
        "coordinates": [
          67.71348594608624,
          16.10521073566034
        ]
      }
    },
    {
      "type": "Feature",
      "properties": {
        "norad_id": 41886,
        "name": "CYGFM02",
        "group": "weather",
        "lat": 14.466111437119368,
        "lon": 63.33071802554327,
        "alt_km": 415.6926729234019,
        "timestamp": "2025-12-09T11:33:54.442297+00:00",
        "meta_object_name": "CYGFM02",
        "meta_object_id": "2016-078C",
        "meta_epoch": "2025-12-08T13:50:02.361408",
        "meta_mean_motion": 15.51459598,
        "meta_eccentricity": 0.0010683,
        "meta_inclination": 34.9442,
        "meta_ra_of_asc_node": 47.5977,
        "meta_arg_of_pericenter": 172.6655,
        "meta_mean_anomaly": 187.4225,
        "meta_ephemeris_type": 0,
        "meta_classification_type": "U",
        "meta_norad_cat_id": 41886,
        "meta_element_set_no": 999,
        "meta_rev_at_epoch": 49942,
        "meta_bstar": 0.00050542,
        "meta_mean_motion_dot": 0.00030924,
        "meta_mean_motion_ddot": 0,
        "tle_line1": "1 41886U 16078C   25342.57641622  .00030924  00000+0  50542-3 0  9994",
        "tle_line2": "2 41886  34.9442  47.5977 0010683 172.6655 187.4225 15.51459598499423"
      },
      "geometry": {
        "type": "Point",
        "coordinates": [
          63.33071802554327,
          14.466111437119368
        ]
      }
    },
    {
      "type": "Feature",
      "properties": {
        "norad_id": 41887,
        "name": "CYGFM01",
        "group": "weather",
        "lat": -21.230471891733934,
        "lon": -75.41090418363079,
        "alt_km": 422.0347882823744,
        "timestamp": "2025-12-09T11:33:54.442308+00:00",
        "meta_object_name": "CYGFM01",
        "meta_object_id": "2016-078D",
        "meta_epoch": "2025-12-08T16:03:02.145312",
        "meta_mean_motion": 15.47982626,
        "meta_eccentricity": 0.00091843,
        "meta_inclination": 34.9428,
        "meta_ra_of_asc_node": 76.0976,
        "meta_arg_of_pericenter": 136.6674,
        "meta_mean_anomaly": 223.4771,
        "meta_ephemeris_type": 0,
        "meta_classification_type": "U",
        "meta_norad_cat_id": 41887,
        "meta_element_set_no": 999,
        "meta_rev_at_epoch": 49907,
        "meta_bstar": 0.00050735925,
        "meta_mean_motion_dot": 0.00027409,
        "meta_mean_motion_ddot": 0,
        "tle_line1": "1 41887U 16078D   25342.66877483  .00027409  00000+0  50736-3 0  9990",
        "tle_line2": "2 41887  34.9428  76.0976 0009184 136.6674 223.4771 15.47982626499075"
      },
      "geometry": {
        "type": "Point",
        "coordinates": [
          -75.41090418363079,
          -21.230471891733934
        ]
      }
    },
    {
      "type": "Feature",
      "properties": {
        "norad_id": 41888,
        "name": "CYGFM08",
        "group": "weather",
        "lat": -33.294833927030915,
        "lon": -56.05630184856372,
        "alt_km": 420.2285653076033,
        "timestamp": "2025-12-09T11:33:54.442322+00:00",
        "meta_object_name": "CYGFM08",
        "meta_object_id": "2016-078E",
        "meta_epoch": "2025-12-08T14:22:18.111936",
        "meta_mean_motion": 15.49171763,
        "meta_eccentricity": 0.0011072,
        "meta_inclination": 34.9463,
        "meta_ra_of_asc_node": 59.5943,
        "meta_arg_of_pericenter": 161.1133,
        "meta_mean_anomaly": 199.0001,
        "meta_ephemeris_type": 0,
        "meta_classification_type": "U",
        "meta_norad_cat_id": 41888,
        "meta_element_set_no": 999,
        "meta_rev_at_epoch": 49929,
        "meta_bstar": 0.00050019,
        "meta_mean_motion_dot": 0.00028201,
        "meta_mean_motion_ddot": 0,
        "tle_line1": "1 41888U 16078E   25342.59882074  .00028201  00000+0  50019-3 0  9990",
        "tle_line2": "2 41888  34.9463  59.5943 0011072 161.1133 199.0001 15.49171763499299"
      },
      "geometry": {
        "type": "Point",
        "coordinates": [
          -56.05630184856372,
          -33.294833927030915
        ]
      }
    }
  ]
}